{
    "links": {
        "self": "http://www.neowsapp.com/rest/v1/neo/3739381?api_key=iIulBulltgU6a56xZRHN4H3l9WmuAYTsLGpBGhQ2"
    },
    "id": "3739381",
    "neo_reference_id": "3739381",
    "name": "(2016 AX64)",
    "designation": "2016 AX64",
    "nasa_jpl_url": "http://ssd.jpl.nasa.gov/sbdb.cgi?sstr=3739381",
    "absolute_magnitude_h": 25.5,
    "estimated_diameter": {
        "kilometers": {
            "estimated_diameter_min": 0.0211132445,
            "estimated_diameter_max": 0.0472106499
        },
        "meters": {
            "estimated_diameter_min": 21.113244479,
            "estimated_diameter_max": 47.2106498806
        },
        "miles": {
            "estimated_diameter_min": 0.0131191578,
            "estimated_diameter_max": 0.0293353287
        },
        "feet": {
            "estimated_diameter_min": 69.2691770164,
            "estimated_diameter_max": 154.8905885541
        }
    },
    "is_potentially_hazardous_asteroid": false,
    "close_approach_data": [
        {
            "close_approach_date": "2016-01-04",
            "close_approach_date_full": "2016-Jan-04 23:45",
            "epoch_date_close_approach": 1451951100000,
            "relative_velocity": {
                "kilometers_per_second": "15.1006458078",
                "kilometers_per_hour": "54362.3249079997",
                "miles_per_hour": "33778.6346074179"
            },
            "miss_distance": {
                "astronomical": "0.0423702711",
                "lunar": "16.4820354579",
                "kilometers": "6338502.307882557",
                "miles": "3938562.7005390066"
            },
            "orbiting_body": "Earth"
        }
    ],
    "orbital_data": {
        "orbit_id": "4",
        "orbit_determination_date": "2017-04-06 08:29:22",
        "first_observation_date": "2016-01-07",
        "last_observation_date": "2016-01-14",
        "data_arc_in_days": 7,
        "observations_used": 27,
        "orbit_uncertainty": "8",
        "minimum_orbit_intersection": ".0394065",
        "jupiter_tisserand_invariant": "2.523",
        "epoch_osculation": "2457395.5",
        "eccentricity": ".728686216513454",
        "semi_major_axis": "3.599516710016506",
        "inclination": "18.99910149984002",
        "ascending_node_longitude": "108.6714807204909",
        "orbital_period": "2494.392074270634",
        "perihelion_distance": ".9765984973176228",
        "perihelion_argument": "331.3103371378525",
        "aphelion_distance": "6.22243492271539",
        "perihelion_time": "2457373.788904571828",
        "mean_anomaly": "3.133426551007358",
        "mean_motion": ".1443237427320903",
        "equinox": "J2000",
        "orbit_class": {
            "orbit_class_type": "APO",
            "orbit_class_description": "Near-Earth asteroid orbits which cross the Earth’s orbit similar to that of 1862 Apollo",
            "orbit_class_range": "a (semi-major axis) > 1.0 AU; q (perihelion) < 1.017 AU"
        }
    },
    "is_sentry_object": false
}